#dP2025  2  2 12  0  0.00000000      96 __u+U IGS20 EXT  IAC
## 2352  43200.00000000   900.00000000 60708 0.5000000000000
+   51   G01G02G03G04G05G06G07G08G09G10G11G12G13G14G15G16G17
+        G18G19G20G21G22G23G24G25G26G27G28G29G30G31G32R01R02
+        R03R04R05R07R08R09R11R12R14R15R16R17R18R20R21R22R24
+          0  0  0  0  0  0  0  0  0  0  0  0  0  0  0  0  0
+          0  0  0  0  0  0  0  0  0  0  0  0  0  0  0  0  0
++         7  7  7  7  8  6  6  7  7  6  8  7  6  8  7  7  7
++         6  8  7  7  7  6  7  7  7  7  7  8  6  8  7  8  7
++         9  7  7  0  7  6  9  8  7  7  8  7  6  9  9  7  9
++         0  0  0  0  0  0  0  0  0  0  0  0  0  0  0  0  0
++         0  0  0  0  0  0  0  0  0  0  0  0  0  0  0  0  0
%c M  cc GPS ccc cccc cccc cccc cccc ccccc ccccc ccccc ccccc
%c cc cc ccc ccc cccc cccc cccc cccc ccccc ccccc ccccc ccccc
%f  0.0000000  0.000000000  0.00000000000  0.000000000000000
%f  0.0000000  0.000000000  0.00000000000  0.000000000000000
%i    0    0    0    0      0      0      0      0         0
%i    0    0    0    0      0      0      0      0         0
/* IAC                                ULTRA-RAPID PREDICTION
/* S/V CLOCKS ARE ALIGNED TO GNSS TIME                      
/* G:C1WC2W R:C1PC2P E:C1XC5X C:C2IC6I J:C1CC2S             
/* PCV:IGS20_2350 OL/AL:FES2004  NONE     YN ORB:CoN CLK:CoN
*  2025 02 02 17 30  0.00000000
PG01  13768.709795 -20711.283348  -9304.901737     94.707428
PG02  13292.651021 -21995.375253  -5330.509165   -252.705818
PG03   6012.664761 -13553.842140 -22192.849323    657.159800
PG04   1857.154008 -24076.871336 -10860.372805    521.360809
PG05 -19936.341512   6983.599818  15968.535908   -200.830636
PG06 -17635.487357   -878.668012 -19813.967053   -161.252132
PG07  -1263.625440 -18523.835874  19372.021629    -13.476666
PG08   8748.304729 -16385.307712  18672.656895    473.003988
PG09  -6245.526171 -25682.935316  -2312.556399    552.502610
PG10  23673.554523  10655.041077   6623.459174   -302.526619
PG11 -21841.555544   9132.240295 -11941.196819   -749.342293
PG12  -9382.114095  12802.631815 -21583.404932   -568.006897
PG13 -13630.518394   7428.149222  21282.773229    695.335519
PG14 -21360.762297 -12972.932229   9394.139068    591.458523
PG15  -6097.938348  18070.399077  17909.036430    258.893678
PG16  23841.975227   -425.054577  11794.081538    -62.625708
PG17 -12680.842401 -19748.038315 -11824.744329    444.917267
PG18   2498.462420  16906.892037  20300.567212   -655.175375
PG19 -15295.683984 -10935.532926 -19065.507067    593.486137
PG20 -26001.684724   1673.626544   4889.603269    366.593235
PG21  17002.852627 -19559.531513   1370.759568    101.875264
PG22 -24264.837239 -10211.004661   2216.482457    -95.292180
PG23  12807.860557  15118.756153  17845.247353    415.983600
PG24 -13607.086281  22232.369535  -4292.413406   -456.878220
PG25   5181.334065  16417.237160 -20651.705406    495.703718
PG26  26516.968525   3454.742616   1151.632673    -74.124952
PG27  14510.582822  -4236.557223  21522.149505    -32.146002
PG28  16856.436754   2646.654973 -20368.985437   -550.504135
PG29   3777.096426  26140.336997  -2122.363262   -541.429892
PG30 -12096.137925 -10251.276337  21472.094022   -225.187995
PG31  21129.887240  -5092.129150 -15752.737371   -216.445711
PG32  15505.448117  15002.012099 -15390.777828   -529.658316
PR01 -16205.378435  -6745.339134  18518.934518    113.372726
PR02  -6835.951883   8793.480237  23002.753745    -37.834684
PR03   6484.327637  20275.290503  14154.080781    116.102499
PR04  15382.240985  20258.235068  -1998.877458    275.409805
PR05  16297.566976   9554.375165 -17137.220752    144.757941
PR07  -6677.621282 -20316.426927 -13817.002044    100.046161
PR08 -15722.739775 -19919.916773   2444.099155     -6.246498
PR09  19815.769949  -9291.994710  13044.374340    235.683653
PR11 -13202.040407  -8193.703899  20240.217224     -5.739049
PR12 -25109.929898    559.470949   4433.068152     50.329853
PR14  -3765.653062  11450.955616 -22477.852027     27.682860
PR15  14874.355102   7718.834412 -19217.279184     71.580095
PR16  25071.314645   -592.665385  -4561.571542     32.989719
PR17  -6197.296433  23170.121500   8644.031791    162.839897
PR18   3588.316334  14454.099382  20743.724100    185.052157
PR20  14508.626396 -18426.864978   9987.322814   -125.303870
PR21   7233.179931 -23348.187124  -7328.492743   -173.408517
PR22  -4446.430385 -13573.734970 -21101.321216    -58.883324
PR24 -13646.176127  19379.439342  -9394.428189    -90.793650
*  2025 02 02 17 45  0.00000000
PG01  14600.776370 -21159.504990  -6650.004802     94.730985
PG02  13814.332237 -22229.992711  -2486.271041   -252.697412
PG03   8416.672129 -12976.072366 -21738.679244    657.165589
PG04   2429.334666 -22796.185227 -13256.862791    521.365888
PG05 -21614.682157   6536.655978  13863.887739   -200.831622
PG06 -16074.772197  -2617.690060 -20940.561014   -161.275186
PG07    234.505519 -19930.810147  17877.933470    -13.476889
PG08   9652.149284 -14317.878102  19918.806903    473.010382
PG09  -5867.793813 -25372.499664  -5130.325687    552.515337
PG10  22791.622018  10599.755574   9319.826573   -302.540506
PG11 -20916.274040   7929.202003 -14234.673749   -749.340624
PG12 -11638.447941  12076.416778 -20878.537484   -568.008841
PG13 -14081.276056   4958.658782  21720.364682    695.336439
PG14 -20132.783851 -12929.645764  11836.101970    591.464725
PG15  -7254.766431  16150.180675  19237.908953    258.897635
PG16  24967.837580    140.454708   9325.058735    -62.617411
PG17 -12763.181594 -21037.005517  -9314.889307    444.900728
PG18    875.896606  18464.102770  19017.008861   -655.173642
PG19 -15602.723646 -12967.539914 -17505.095662    593.490096
PG20 -26381.964079   1387.832249   2071.428759    366.592966
PG21  17096.712617 -19120.748442   4269.212726    101.875357
PG22 -23821.272909 -10361.600643   5046.994569    -95.293700
PG23  10718.863284  14808.700816  19397.708274    415.990207
PG24 -14062.712494  22249.959150  -1492.971229   -456.874089
PG25   2884.327023  16022.369645 -21386.773030    495.703105
PG26  26470.090041   3764.833455  -1617.545379    -74.139597
PG27  15296.592124  -1842.084586  21356.986938    -32.145429
PG28  15364.518130   4497.070449 -21207.427579   -550.512143
PG29   3449.964724  25805.320342  -4961.220720   -541.426722
PG30 -10449.980998 -12036.813122  21384.650334   -225.180256
PG31  19958.328545  -3647.930256 -17571.942045   -216.444886
PG32  15855.242367  16642.020829 -13249.101232   -529.651515
PR01 -17650.832420  -8346.902710  16427.334618    113.373900
PR02  -8536.277068   6520.316070  23185.236652    -37.834337
PR03   5435.669746  18704.539116  16557.650813    116.103024
PR04  15561.976208  20187.598915   1229.155381    275.411458
PR05  17589.829876  11053.350597 -14803.517445    144.758461
PR07  -5636.107477 -18762.091376 -16259.664023    100.046851
PR08 -15912.227286 -19893.450066   -778.439900     -6.246413
PR09  21222.594117  -9608.556138  10305.299128    235.685492
PR11 -10641.961047  -8505.962275  21574.146118     -5.741911
PR12 -24363.562364    582.157349   7527.685219     50.330241
PR14  -6451.333108  11887.481175 -21626.527328     27.682890
PR15  12419.782358   8001.122729 -20780.875357     71.579767
PR16  24303.060591   -628.725417  -7662.745227     32.990058
PR17  -6373.050088  24046.915102   5568.035965    162.842835
PR18   2711.148425  16749.157684  19087.548476    185.053861
PR20  13736.599429 -17233.610075  12816.187887   -125.304376
PR21   7336.075022 -24078.645928  -4196.080336   -173.411314
PR22  -3459.284832 -15892.493483 -19615.878629    -58.884936
PR24 -13014.794659  18192.760829 -12230.224209    -90.795148
EOF
